COSMOS 1892             
1 18421U 87088A   20176.52804339  .00000592  00000-0  28110-4 0  9999
2 18421  82.5011 266.5373 0016162  46.3208 313.9362 15.17159027785629
SL-14 R/B               
1 18749U 88001B   20176.57094949  .00000048  00000-0  29600-5 0  9993
2 18749  82.5137 350.9723 0017202 275.3449 145.9534 14.83220723732928
COSMOS 1933             
1 18958U 88020A   20176.58113743  .00000604  00000-0  41866-4 0  9996
2 18958  82.5298 118.7158 0012784 122.8026 237.4434 15.03732911736152
SL-3 R/B                
1 19046U 88032B   20176.58595851 -.00000120  00000-0 -44549-5 0  9999
2 19046  97.4044 197.3414 0037690 177.6686 182.4722 15.02732236738033
SL-16 R/B               
1 19120U 88039B   20176.37526780 -.00000158  00000-0 -52106-4 0  9999
2 19120  71.0125 153.8972 0023953 294.0706  65.7913 14.19209351662635
COSMOS 1953             
1 19210U 88050A   20176.35715859  .00000081  00000-0  35336-5 0  9997
2 19210  82.5158  43.1313 0015287  93.9475 266.3500 15.05977117722702
SL-8 R/B                
1 19257U 88053B   20176.60807403  .00000049  00000-0  25258-4 0  9991
2 19257  74.0491 347.8296 0021005 323.3188 101.2811 14.37472278677038
COSMOS 1975             
1 19573U 88093A   20176.53677180 -.00000099  00000-0 -90763-5 0  9996
2 19573  82.5197 357.3193 0015383 135.4389 224.8077 15.04893271704576
SL-14 R/B               
1 19574U 88093B   20176.58671301  .00000037  00000-0  15185-5 0  9996
2 19574  82.5312 193.3752 0023190  79.4072  38.3686 14.83330820691926
SL-16 R/B               
1 19650U 88102B   20176.54988226 -.00000083  00000-0 -17806-4 0  9999
2 19650  70.9980 214.9860 0016277 299.0565  60.8927 14.15793610631880
INTERCOSMOS 24          
1 20261U 89080A   20176.58932082  .00000058  00000-0  77114-5 0  9997
2 20261  82.6049  15.6624 1203675  71.4145 301.3683 12.56121571404892
SL-14 R/B               
1 20262U 89080C   20176.46417137  .00000020  00000-0  55312-5 0  9999
2 20262  82.5960  69.4423 1235844 261.1403  84.8127 12.48941383399864
DELTA 2 R/B(1)          
1 20303U 89085B   20176.45740266  .00001148  00000-0  38545-4 0  9991
2 20303  35.6246 326.4909 0095678 238.7384 120.3942 15.27381193669135
DELTA 1 R/B             
1 20323U 89089B   20176.40469133 -.00000009  00000-0  67757-5 0  9997
2 20323  97.0913 321.1135 0071025 208.0498 151.6865 14.48349826593876
ARIANE 40 R/B           
1 20443U 90005H   20176.40118003  .00000007  00000-0  16908-4 0  9995
2 20443  98.5752 238.2138 0009642 328.1945  31.8659 14.38090775593116
DELTA 2 R/B(1)          
1 20453U 90008B   20176.54415257  .00000490  00000-0  30741-4 0  9992
2 20453  35.6234 214.5071 0280650   3.9400 356.3445 14.85584860612251
COSMOS 2058             
1 20465U 90010A   20176.52936740  .00000234  00000-0  17447-4 0  9995
2 20465  82.4900 266.5314 0015712 171.3142 188.8356 14.98016326629381
SL-14 R/B               
1 20466U 90010B   20176.16377124  .00000066  00000-0  55128-5 0  9993
2 20466  82.5038  60.4998 0019482 318.8916  41.0829 14.81386537619727
SL-14 R/B               
1 20511U 90018B   20176.55848220  .00000040  00000-0  21186-5 0  9994
2 20511  82.5226   6.5364 0019041  94.3581 318.3046 14.80042552614169
HST                     
1 20580U 90037B   20176.57249244  .00000327  00000-0  88953-5 0  9997
2 20580  28.4696 272.5808 0002672 163.3944 313.7626 15.09400047457049
SL-16 R/B               
1 20625U 90046B   20176.57623925 -.00000146  00000-0 -51055-4 0  9992
2 20625  70.9999 353.2487 0016159 236.8842 123.0730 14.14659117553623
COSMOS 2084             
1 20663U 90055A   20176.35620714 -.00000103  00000-0  78720-5 0  9994
2 20663  62.7939 145.1392 0028645 264.7791  95.0034 14.92091600624398
SL-6 R/B(2)             
1 20666U 90055D   20176.20655620 -.00000086  00000-0  98716-5 0  9992
2 20666  62.7872  62.0527 0045377 343.1822  16.7764 14.92342787625770
SL-8 R/B                
1 20775U 90078B   20176.56858168  .00001280  00000-0  60385-4 0  9995
2 20775  82.9267 220.7575 0573938 172.5199 188.5043 14.34361501506765
SL-8 R/B                
1 21088U 91006B   20176.56764106  .00000052  00000-0  37266-4 0  9991
2 21088  82.9432 279.9228 0023945 110.4855 260.4496 13.77149785477196
OKEAN-3                 
1 21397U 91039A   20176.48522602  .00000164  00000-0  13267-4 0  9993
2 21397  82.5210 170.0132 0018785 141.9712 218.2839 14.92932277574375
COSMOS 2151             
1 21422U 91042A   20176.56677407  .00000124  00000-0  96952-5 0  9998
2 21422  82.5013 276.1671 0013541 203.4158 156.6447 14.92137380551944
SL-14 R/B               
1 21423U 91042B   20176.56266926  .00000045  00000-0  29039-5 0  9993
2 21423  82.4936  10.2615 0016346 233.0871 126.8845 14.79793009544719
ERS-1                   
1 21574U 91050A   20176.44582640  .00000009  00000-0  17876-4 0  9995
2 21574  98.5979 129.8066 0031729 266.4667  93.2890 14.37746843516122
ARIANE 40 R/B           
1 21610U 91050F   20176.48038668  .00000009  00000-0  16373-4 0  9997
2 21610  98.4647 245.6453 0002308 220.0367 150.8635 14.40906776518996
INTERCOSMOS 25          
1 21819U 91086A   20176.55102119  .00000288  00000-0  59200-4 0  9993
2 21819  82.5934 122.0944 1515150 256.7990  86.0253 12.05141999245143
SL-8 R/B                
1 21876U 92008B   20176.57580626 -.00000026  00000-0 -42482-4 0  9992
2 21876  82.9261  17.1296 0034448 191.9249 220.6380 13.75658822422857
SL-8 R/B                
1 21938U 92020B   20176.60189198 -.00000014  00000-0 -30768-4 0  9999
2 21938  82.9307 261.2513 0028969 356.3847 113.0909 13.75285651414650
COSMOS 2219             
1 22219U 92076A   20176.36372999 -.00000259  00000-0 -11215-3 0  9995
2 22219  71.0600  53.2789 0017134 150.5969 209.6121 14.13638398423799
SL-16 R/B               
1 22220U 92076B   20176.56972851  .00000223  00000-0  13616-3 0  9998
2 22220  71.0003 256.6025 0011884  22.6245  73.3265 14.16454157426680
COSMOS 2221             
1 22236U 92080A   20176.28357028  .00000139  00000-0  12509-4 0  9999
2 22236  82.5087  97.2039 0015364 302.5109  57.4624 14.87928403491330
SL-16 R/B               
1 22285U 92093B   20176.29910553 -.00000075  00000-0 -13990-4 0  9992
2 22285  71.0217  58.1564 0006254 252.8789 107.1649 14.15041291418588
COSMOS 2228             
1 22286U 92094A   20176.50379317  .00000145  00000-0  12939-4 0  9993
2 22286  82.5206  53.2401 0022527  59.8522 300.4923 14.88146437465494
SL-16 R/B               
1 22566U 93016B   20176.53799066 -.00000201  00000-0 -79183-4 0  9998
2 22566  71.0077 270.8789 0012565 257.3854 102.5863 14.14961291407339
COSMOS 2242             
1 22626U 93024A   20176.48222621  .00000138  00000-0  12232-4 0  9995
2 22626  82.5226  81.3882 0020373  60.1116 300.2122 14.88002495469904
SL-16 R/B               
1 22803U 93059B   20176.46242139 -.00000250  00000-0 -10068-3 0  9995
2 22803  70.9915  84.4966 0016050 152.1215 208.0772 14.16822975384550
ARIANE 40 R/B           
1 22830U 93061H   20176.57265667 -.00000029  00000-0  60797-5 0  9990
2 22830  98.7642 225.8325 0009886 304.6436  55.3814 14.31451515395842
COSMOS 2278             
1 23087U 94023A   20176.53569357 -.00000276  00000-0 -12068-3 0  9994
2 23087  71.0531 212.8530 0010676 318.7225  41.3089 14.13810327350191
SL-16 R/B               
1 23088U 94023B   20176.33117000  .00000290  00000-0  17550-3 0  9992
2 23088  70.9996 126.6856 0005012 240.2198 119.8426 14.14687039351284
SL-16 R/B               
1 23343U 94074B   20176.15029519  .00000001  00000-0  74419-5 0  9998
2 23343  97.9983 229.0919 0008072 123.2184 295.3546 14.76827098379401
SL-16 R/B               
1 23405U 94077B   20176.41253913  .00000243  00000-0  14975-3 0  9993
2 23405  70.9845  55.8319 0000563  80.2432 279.8755 14.15222139321349
ERS-2                   
1 23560U 95021A   20176.45647125  .00000353  00000-0  18709-4 0  9993
2 23560  98.5424 330.9172 0004315 134.1623 225.9966 15.23192600343185
ARIANE 40+ R/B          
1 23561U 95021B   20176.56184819  .00000008  00000-0  17701-4 0  9990
2 23561  98.7231 215.8633 0006072 226.0125 251.9711 14.37972957319597
SL-16 R/B               
1 23705U 95058B   20176.58535572 -.00000292  00000-0 -12609-3 0  9996
2 23705  71.0215 233.9887 0010674  48.8695 311.3347 14.15136715272987
SL-16 R/B               
1 24298U 96051B   20176.52594996 -.00000016  00000-0  17460-4 0  9991
2 24298  70.8439 255.6171 0015828 331.2001  28.8243 14.12501219227351
ORBVIEW 2 (SEASTAR)     
1 24883U 97037A   20176.58996919  .00000025  00000-0  25050-4 0  9996
2 24883  98.6118 289.8405 0003538  88.4476 271.7113 14.33559505209735
SL-16 R/B               
1 25400U 98043G   20176.59289336 -.00000016  00000-0  11751-4 0  9993
2 25400  98.6076 112.3893 0009153 319.8695  40.1808 14.25456903142035
SL-16 R/B               
1 25407U 98045B   20176.54621124 -.00000254  00000-0 -10467-3 0  9999
2 25407  71.0118 242.7026 0009407 313.5185  46.5156 14.15801622132088
ISS (ZARYA)             
1 25544U 98067A   20176.71137645  .00000375  00000-0  14772-4 0  9990
2 25544  51.6445 311.2241 0002492  80.5664   9.8690 15.49456516233182
SL-8 R/B                
1 25723U 99022C   20176.50757029  .00010147  00000-0  72138-4 0  9990
2 25723  48.4105 325.5285 0004577 358.0460   2.0474 15.74452943178773
CZ-4B R/B               
1 25732U 99025C   20176.61061267 -.00000043  00000-0  13776-5 0  9996
2 25732  98.9434 205.3962 0037213 188.5613 280.8470 14.17678026 92836
OKEAN-O                 
1 25860U 99039A   20176.55827517 -.00000002  00000-0  73339-5 0  9990
2 25860  98.2132 195.6814 0001226 114.4810 245.6528 14.76665579126560
SL-16 R/B               
1 25861U 99039B   20176.58278314 -.00000007  00000-0  66264-5 0  9993
2 25861  98.2070 178.8798 0016648 131.7124 340.0210 14.78581173128671
DELTA 2 R/B             
1 25876U 99041E   20176.55305878 -.00000209  00000-0  55938-5 0  9995
2 25876  51.7651 282.3281 0531226   4.8977 355.6869 14.04431350 69625
